{"spkid": "50485282", "covariance": {"elements": [{"label": "e", "units": null, "value": ".4167937031681608", "title": "eccentricity", "sigma": 2.04046863714051e-08, "name": "e"}, {"label": "q", "value": ".7395867837978402", "title": "perihelion distance", "units": "au", "name": "q", "sigma": 2.6041727155727e-08}, {"label": "tp", "title": "time of perihelion passage", "value": "2457356.526601803202", "units": "TDB", "sigma": 1.23835990950193e-05, "name": "tp"}, {"label": "node", "sigma": 1.80412079627036e-05, "name": "om", "title": "longitude of the ascending node", "value": "279.5410539790926", "units": "deg"}, {"name": "w", "sigma": 2.22045041136839e-05, "units": "deg", "title": "argument of perihelion", "value": "278.2938263599484", "label": "peri"}, {"title": "inclination", "value": "5.990657077338168", "units": "deg", "sigma": 1.14098542527694e-05, "name": "i", "label": "i"}], "data": [["4.163512259154038E-16", "-5.312439009843986E-16", "-7.129596971090745E-14", "1.934521802024156E-14", "-1.108254608258185E-14", "-8.140677480436049E-15"], ["-5.312439009843986E-16", "6.781715532533266E-16", "8.858045141259969E-14", "-2.315693369418233E-14", "1.051887885704716E-14", "8.99111824973474E-15"], ["-7.129596971090745E-14", "8.858045141259969E-14", "1.533535265461625E-10", "-5.278314098121682E-11", "1.646073547282909E-10", "4.482360561296843E-11"], ["1.934521802024156E-14", "-2.315693369418233E-14", "-5.278314098121682E-11", "3.25485184753519E-10", "-3.622498265373959E-10", "9.140016581503634E-11"], ["-1.108254608258185E-14", "1.051887885704716E-14", "1.646073547282909E-10", "-3.622498265373959E-10", "4.930400029346055E-10", "-5.654151995214573E-11"], ["-8.140677480436049E-15", "8.99111824973474E-15", "4.482360561296843E-11", "9.140016581503634E-11", "-5.654151995214573E-11", "1.301847740694396E-10"]], "labels": ["e", "q", "tp", "node", "peri", "i"], "epoch": "2457303.5"}, "elements": [{"label": "e", "units": null, "title": "eccentricity", "value": ".4168354916036878", "sigma": "2.0746E-8", "name": "e"}, {"label": "a", "name": "a", "sigma": "2.863E-9", "units": "au", "title": "semi-major axis", "value": "1.267854870929134"}, {"label": "q", "name": "q", "sigma": "2.5218E-8", "units": "au", "title": "perihelion distance", "value": ".7393679625232584"}, {"label": "i", "value": "5.966627925925272", "title": "inclination; angle with respect to x-y ecliptic plane", "units": "deg", "name": "i", "sigma": "1.1453E-5"}, {"sigma": "1.819E-5", "name": "om", "units": "deg", "title": "longitude of the ascending node", "value": "279.3544744998069", "label": "node"}, {"label": "peri", "units": "deg", "title": "argument of perihelion", "value": "278.4240580245236", "name": "w", "sigma": "2.2218E-5"}, {"label": "M", "name": "ma", "sigma": "9.2232E-6", "units": "deg", "title": "mean anomaly", "value": "134.3745326645277"}, {"value": "2461005.866672205134", "title": "time of perihelion passage", "units": "TDB", "name": "tp", "sigma": "1.3026E-5", "label": "tp"}, {"label": "period", "sigma": "1.7662E-6", "name": "per", "units": "d", "value": "521.438077712833", "title": "sidereal orbital period"}, {"label": "n", "value": ".6903983720925339", "title": "mean motion", "units": "deg/d", "sigma": "2.3385E-9", "name": "n"}, {"name": "ad", "sigma": "4.0564E-9", "value": "1.79634177933501", "title": "aphelion distance", "units": "au", "label": "Q"}], "epoch": "2461200.5"}